OBJECT_NAME,OBJECT_ID,EPOCH,MEAN_MOTION,ECCENTRICITY,INCLINATION,RA_OF_ASC_NODE,ARG_OF_PERICENTER,MEAN_ANOMALY,EPHEMERIS_TYPE,CLASSIFICATION_TYPE,NORAD_CAT_ID,ELEMENT_SET_NO,REV_AT_EPOCH,BSTAR,MEAN_MOTION_DOT,MEAN_MOTION_DDOT
COSMOS 2058,1990-010A,2026-06-06T13:07:07.945536,15.11943112,.00104568,82.4665,319.8499,36.0110,324.1822,0,U,20465,999,95566,.22125667E-3,.3825E-4,0
SL-14 R/B,1990-010B,2026-06-06T13:54:11.020608,14.83639660,.00200516,82.5019,183.9072,11.5476,348.6194,0,U,20466,999,94166,.42894163E-4,.379E-5,0
SL-14 R/B,1990-018B,2026-06-06T05:02:27.843072,14.82209102,.00167752,82.5201,140.3677,155.6622,204.5388,0,U,20511,999,93569,.50699231E-4,.429E-5,0
HST,1990-037B,2026-06-06T07:41:12.112512,15.30632786,.00018855,28.4714,154.8380,34.6923,325.3796,0,U,20580,999,78690,.2178043E-3,.6872E-4,0
SL-16 R/B,1990-046B,2026-06-06T15:03:13.161024,14.15020420,.00141408,70.9979,111.1256,177.7915,182.3272,0,U,20625,999,86097,.15697479E-3,.257E-5,0
COSMOS 2084,1990-055A,2026-06-06T08:55:32.211840,15.06072304,.00055715,62.7909,33.0039,259.1304,100.9169,0,U,20663,999,94967,.1812536E-3,.246E-4,0
SL-6 R/B(2),1990-055D,2026-06-06T16:15:09.592704,15.03968302,.00389773,62.7841,311.1397,3.6864,356.4514,0,U,20666,999,95157,.16353143E-3,.2099E-4,0
SL-8 R/B,1990-078B,2026-06-06T12:46:55.679232,14.91925991,.0352993,82.9017,171.2678,74.3044,289.6817,0,U,20775,999,82253,.53935E-3,.19142E-3,0
SL-8 R/B,1991-006B,2026-06-06T15:01:49.238976,13.77505131,.0023195,82.9418,103.8898,142.8174,30.0577,0,U,21088,999,77631,.39051E-4,.54E-6,0
OKEAN-3,1991-039A,2026-06-06T15:15:32.456448,15.05281228,.0014692,82.5166,250.6130,34.1296,326.0872,0,U,21397,999,87841,.16620758E-3,.2409E-4,0
COSMOS 2151,1991-042A,2026-06-06T20:32:56.578560,15.00409157,.00136869,82.4963,357.6520,115.0054,245.2594,0,U,21422,999,87656,.11542985E-3,.148E-4,0
SL-14 R/B,1991-042B,2026-06-06T16:29:11.538240,14.81895807,.00157964,82.4921,136.7425,312.5513,47.4366,0,U,21423,999,86625,.52093409E-4,.436E-5,0
ERS-1,1991-050A,2026-06-06T19:23:46.553280,14.39510492,.00308186,98.7800,178.2525,298.9835,60.8264,0,U,21574,999,82855,.94269801E-4,.249E-5,0
ARIANE 40 R/B,1991-050F,2026-06-06T15:32:32.909568,14.42950877,.00037712,98.1879,206.4744,144.6128,215.5314,0,U,21610,999,83182,.10349542E-3,.305E-5,0
INTERCOSMOS 25,1991-086A,2026-06-06T13:08:18.493728,12.12183565,.1484428,82.6057,256.2481,285.3665,58.8577,0,U,21819,999,50745,.15383E-3,.773E-5,0
SL-8 R/B,1992-008B,2026-06-06T15:59:18.665664,13.75974083,.00333148,82.9269,201.6098,245.0382,233.2779,0,U,21876,999,72165,.39874972E-4,.54E-6,0
SL-8 R/B,1992-020B,2026-06-06T14:27:35.682048,13.75547874,.0030291,82.9303,87.7189,51.2399,123.1741,0,U,21938,999,71335,.58173E-4,.72E-6,0
USA 81,1992-023A,2026-06-06T12:24:26.815392,14.32395314,.0002731,85.0077,80.1652,94.5024,265.6480,0,U,21949,999,10750,.66646E-4,.2E-5,0
COSMOS 2219,1992-076A,2026-06-06T19:00:44.015904,14.14095586,.00161205,71.0578,191.8031,61.1295,299.1443,0,U,22219,999,73097,-.17357216E-4,-.8E-6,0
SL-16 R/B,1992-076B,2026-06-06T20:29:23.986176,14.16872419,.00144087,71.0008,0.5502,312.2124,58.5731,0,U,22220,999,73446,-.72692533E-4,-.194E-5,0
COSMOS 2221,1992-080A,2026-06-06T20:12:32.065920,14.96507463,.00126408,82.5036,193.6760,250.4312,109.5545,0,U,22236,999,79412,.12771451E-3,.1478E-4,0
SL-16 R/B,1992-093B,2026-06-06T18:48:03.256992,14.15464998,.00045258,71.0202,177.2320,202.6785,157.4139,0,U,22285,999,72576,-.9434274E-5,-.66E-6,0
COSMOS 2228,1992-094A,2026-06-06T20:45:14.780160,14.97549576,.00179248,82.5170,151.9303,7.7517,352.3979,0,U,22286,999,78940,.21997968E-3,.26E-4,0
SL-16 R/B,1993-016B,2026-06-06T14:54:12.576096,14.15308578,.00109011,71.0080,28.4009,198.9571,161.1148,0,U,22566,999,71475,.28809422E-4,.8E-7,0
COSMOS 2242,1993-024A,2026-06-06T19:40:05.625984,14.96872747,.00163776,82.5180,181.4619,11.7198,348.4402,0,U,22626,999,79372,.14792129E-3,.1726E-4,0
SL-16 R/B,1993-059B,2026-06-06T18:16:50.280384,14.17243789,.00149626,70.9883,183.2895,72.1841,288.0914,0,U,22803,999,69215,.79483334E-4,.113E-5,0
ARIANE 40 R/B,1993-061H,2026-06-06T22:34:31.558656,14.32903576,.00111094,98.4821,225.0103,26.4411,333.7338,0,U,22830,999,70688,.93062375E-4,.211E-5,0
COSMOS 2278,1994-023A,2026-06-06T18:43:06.825504,14.14391700,.0010627,71.0540,348.7010,254.9650,105.0297,0,U,23087,999,65740,.22639432E-3,.386E-5,0
SL-16 R/B,1994-023B,2026-06-06T15:28:43.506336,14.15018806,.00034343,70.9996,244.0707,198.1009,161.9992,0,U,23088,999,65867,.87263505E-4,.121E-5,0
SL-16 R/B,1994-074B,2026-06-06T19:41:48.041952,14.79493712,.00052065,97.6995,184.9733,297.0070,236.1991,0,U,23343,999,70042,.68872018E-4,.466E-5,0
