COSMOS 2058             
1 20465U 90010A   26157.54661974  .00003825  00000+0  22126-3 0  9993
2 20465  82.4665 319.8499 0010456  36.0110 324.1822 15.11943112955661
SL-14 R/B               
1 20466U 90010B   26157.57929422  .00000379  00000+0  42894-4 0  9998
2 20466  82.5019 183.9072 0020051  11.5476 348.6194 14.83639660941664
SL-14 R/B               
1 20511U 90018B   26157.21004448  .00000429  00000+0  50699-4 0  9998
2 20511  82.5201 140.3677 0016775 155.6622 204.5388 14.82209102935691
HST                     
1 20580U 90037B   26157.32027908  .00006872  00000+0  21780-3 0  9999
2 20580  28.4714 154.8380 0001885  34.6923 325.3796 15.30632786786907
SL-16 R/B               
1 20625U 90046B   26157.62723566  .00000257  00000+0  15697-3 0  9996
2 20625  70.9979 111.1256 0014140 177.7915 182.3272 14.15020420860976
COSMOS 2084             
1 20663U 90055A   26157.37190060  .00002460  00000+0  18125-3 0  9994
2 20663  62.7909  33.0039 0005571 259.1304 100.9169 15.06072304949671
SL-6 R/B(2)             
1 20666U 90055D   26157.67719436  .00002099  00000+0  16353-3 0  9993
2 20666  62.7841 311.1397 0038977   3.6864 356.4514 15.03968302951578
SL-8 R/B                
1 20775U 90078B   26157.53258888  .00019142  00000+0  53935-3 0  9997
2 20775  82.9017 171.2678 0352993  74.3044 289.6817 14.91925991822536
SL-8 R/B                
1 21088U 91006B   26157.62626434  .00000054  00000+0  39051-4 0  9999
2 21088  82.9418 103.8898 0023195 142.8174  30.0577 13.77505131776316
OKEAN-3                 
1 21397U 91039A   26157.63579232  .00002409  00000+0  16621-3 0  9995
2 21397  82.5166 250.6130 0014692  34.1296 326.0872 15.05281228878416
COSMOS 2151             
1 21422U 91042A   26157.85621040  .00001480  00000+0  11543-3 0  9993
2 21422  82.4963 357.6520 0013686 115.0054 245.2594 15.00409157876568
SL-14 R/B               
1 21423U 91042B   26157.68693910  .00000436  00000+0  52093-4 0  9996
2 21423  82.4921 136.7425 0015796 312.5513  47.4366 14.81895807866254
ERS-1                   
1 21574U 91050A   26157.80817770  .00000249  00000+0  94270-4 0  9993
2 21574  98.7800 178.2525 0030818 298.9835  60.8264 14.39510492828559
ARIANE 40 R/B           
1 21610U 91050F   26157.64760312  .00000305  00000+0  10350-3 0  9994
2 21610  98.1879 206.4744 0003771 144.6128 215.5314 14.42950877831825
INTERCOSMOS 25          
1 21819U 91086A   26157.54743627  .00000773  00000+0  15383-3 0  9993
2 21819  82.6057 256.2481 1484428 285.3665  58.8577 12.12183565507450
SL-8 R/B                
1 21876U 92008B   26157.66618826  .00000054  00000+0  39875-4 0  9991
2 21876  82.9269 201.6098 0033314 245.0382 233.2779 13.75974083721657
SL-8 R/B                
1 21938U 92020B   26157.60249632  .00000072  00000+0  58173-4 0  9995
2 21938  82.9303  87.7189 0030291  51.2399 123.1741 13.75547874713353
USA 81                  
1 21949U 92023A   26157.51697703  .00000200  00000+0  66646-4 0  9993
2 21949  85.0077  80.1652 0002731  94.5024 265.6480 14.32395314107502
COSMOS 2219             
1 22219U 92076A   26157.79217611 -.00000080  00000+0 -17357-4 0  9991
2 22219  71.0578 191.8031 0016120  61.1295 299.1443 14.14095586730974
SL-16 R/B               
1 22220U 92076B   26157.85374984 -.00000194  00000+0 -72693-4 0  9997
2 22220  71.0008   0.5502 0014408 312.2124  58.5731 14.16872419734466
COSMOS 2221             
1 22236U 92080A   26157.84203780  .00001478  00000+0  12771-3 0  9997
2 22236  82.5036 193.6760 0012640 250.4312 109.5545 14.96507463794120
SL-16 R/B               
1 22285U 92093B   26157.78337103 -.00000066  00000+0 -94343-5 0  9996
2 22285  71.0202 177.2320 0004525 202.6785 157.4139 14.15464998725769
COSMOS 2228             
1 22286U 92094A   26157.86475440  .00002600  00000+0  21998-3 0  9992
2 22286  82.5170 151.9303 0017924   7.7517 352.3979 14.97549576789400
SL-16 R/B               
1 22566U 93016B   26157.62097889  .00000008  00000+0  28809-4 0  9998
2 22566  71.0080  28.4009 0010901 198.9571 161.1148 14.15308578714751
COSMOS 2242             
1 22626U 93024A   26157.81950956  .00001726  00000+0  14792-3 0  9991
2 22626  82.5180 181.4619 0016377  11.7198 348.4402 14.96872747793723
SL-16 R/B               
1 22803U 93059B   26157.76169306  .00000113  00000+0  79483-4 0  9999
2 22803  70.9883 183.2895 0014962  72.1841 288.0914 14.17243789692154
ARIANE 40 R/B           
1 22830U 93061H   26157.94064304  .00000211  00000+0  93062-4 0  9992
2 22830  98.4821 225.0103 0011109  26.4411 333.7338 14.32903576706881
COSMOS 2278             
1 23087U 94023A   26157.77994011  .00000386  00000+0  22639-3 0  9998
2 23087  71.0540 348.7010 0010627 254.9650 105.0297 14.14391700657405
SL-16 R/B               
1 23088U 94023B   26157.64494799  .00000121  00000+0  87264-4 0  9996
2 23088  70.9996 244.0707 0003434 198.1009 161.9992 14.15018806658672
SL-16 R/B               
1 23343U 94074B   26157.82069493  .00000466  00000+0  68872-4 0  9991
2 23343  97.6995 184.9733 0005206 297.0070 236.1991 14.79493712700426
